STARLINK-36810          
1 67898U 26035V   26070.25002315 -.01287133  00000+0 -69295-2 0  9996
2 67898  97.2682   2.6999 0001570  95.4946  65.8307 15.82843535  4006
STARLINK-36878          
1 67899U 26035W   26070.25002315 -.01330976  00000+0 -72234-2 0  9998
2 67899  97.2680   2.7037 0001645 106.5419  63.6081 15.82768802  4009
STARLINK-36361          
1 67900U 26035X   26070.25002315 -.01384965  00000+0 -75817-2 0  9998
2 67900  97.2672   2.7053 0001630 102.5421  72.1000 15.82706617  4006
STARLINK-36336          
1 67901U 26035Y   26070.25002315 -.01439527  00000+0 -78668-2 0  9991
2 67901  97.2684   2.7125 0001628 104.7096  83.4151 15.82385893  4055
STARLINK-36876          
1 67902U 26035Z   26070.25002315 -.01394521  00000+0 -76603-2 0  9993
2 67902  97.2680   2.7086 0001565 103.1928  75.8448 15.82656314  4003
STARLINK-36257          
1 67903U 26035AA  26070.25002315 -.01351445  00000+0 -74242-2 0  9999
2 67903  97.2679   2.7104 0001446  95.3176  88.1577 15.82559080  4055
STARLINK-36814          
1 67904U 26036A   26070.25002315 -.01949139  00000+0 -18466-1 0  9999
2 67904  42.9995 240.4259 0001720 274.8148 144.3517 15.69102970  3891
STARLINK-36729          
1 67905U 26036B   26070.25002315 -.01928869  00000+0 -12308-1 0  9996
2 67905  42.9992 240.2473 0001551 277.6062 212.7655 15.78634825  3895
STARLINK-36763          
1 67906U 26036C   26069.90995801 -.00381330  00000+0 -19336-2 0  9992
2 67906  42.9984 242.3100 0003060 296.6307  63.4251 15.81509246  3869
STARLINK-36742          
1 67907U 26036D   26069.53034784  .00670159  00000+0  28999-2 0  9999
2 67907  42.9985 244.6248 0003915 243.6251 116.4219 15.82352005  3805
STARLINK-36827          
1 67908U 26036E   26069.84524742  .00210941  00000+0  97500-3 0  9996
2 67908  42.9985 242.6849 0002267 279.6488  80.4127 15.82126491  3852
STARLINK-36822          
1 67909U 26036F   26070.25002315 -.01927070  00000+0 -11978-1 0  9995
2 67909  42.9994 240.2018 0001211 270.6056 238.3924 15.79207408  3892
