CCSDS_OMM_VERS = 2.0
CREATION_DATE  = 
ORIGINATOR     = 

OBJECT_NAME    = STARLINK-36810
OBJECT_ID      = 2026-035V
CENTER_NAME    = EARTH
REF_FRAME      = TEME
TIME_SYSTEM    = UTC
MEAN_ELEMENT_THEORY = SGP/SGP4

EPOCH          = 2026-03-11T06:00:02.000160
MEAN_MOTION    = 15.82843535
ECCENTRICITY   = .00015708
INCLINATION    = 97.2682
RA_OF_ASC_NODE = 2.6999
ARG_OF_PERICENTER = 95.4946
MEAN_ANOMALY   = 65.8307

EPHEMERIS_TYPE = 0
CLASSIFICATION_TYPE = U
NORAD_CAT_ID   = 67898
ELEMENT_SET_NO = 999
REV_AT_EPOCH   = 400
BSTAR          = -.69294512E-2
MEAN_MOTION_DOT = -.1287133E-1
MEAN_MOTION_DDOT = 0

CCSDS_OMM_VERS = 2.0
CREATION_DATE  = 
ORIGINATOR     = 

OBJECT_NAME    = STARLINK-36878
OBJECT_ID      = 2026-035W
CENTER_NAME    = EARTH
REF_FRAME      = TEME
TIME_SYSTEM    = UTC
MEAN_ELEMENT_THEORY = SGP/SGP4

EPOCH          = 2026-03-11T06:00:02.000160
MEAN_MOTION    = 15.82768802
ECCENTRICITY   = .00016459
INCLINATION    = 97.2680
RA_OF_ASC_NODE = 2.7037
ARG_OF_PERICENTER = 106.5419
MEAN_ANOMALY   = 63.6081

EPHEMERIS_TYPE = 0
CLASSIFICATION_TYPE = U
NORAD_CAT_ID   = 67899
ELEMENT_SET_NO = 999
REV_AT_EPOCH   = 400
BSTAR          = -.72233873E-2
MEAN_MOTION_DOT = -.1330976E-1
MEAN_MOTION_DDOT = 0

CCSDS_OMM_VERS = 2.0
CREATION_DATE  = 
ORIGINATOR     = 

OBJECT_NAME    = STARLINK-36361
OBJECT_ID      = 2026-035X
CENTER_NAME    = EARTH
REF_FRAME      = TEME
TIME_SYSTEM    = UTC
MEAN_ELEMENT_THEORY = SGP/SGP4

EPOCH          = 2026-03-11T06:00:02.000160
MEAN_MOTION    = 15.82706617
ECCENTRICITY   = .00016307
INCLINATION    = 97.2672
RA_OF_ASC_NODE = 2.7053
ARG_OF_PERICENTER = 102.5421
MEAN_ANOMALY   = 72.1000

EPHEMERIS_TYPE = 0
CLASSIFICATION_TYPE = U
NORAD_CAT_ID   = 67900
ELEMENT_SET_NO = 999
REV_AT_EPOCH   = 400
BSTAR          = -.75817095E-2
MEAN_MOTION_DOT = -.1384965E-1
MEAN_MOTION_DDOT = 0

CCSDS_OMM_VERS = 2.0
CREATION_DATE  = 
ORIGINATOR     = 

OBJECT_NAME    = STARLINK-36336
OBJECT_ID      = 2026-035Y
CENTER_NAME    = EARTH
REF_FRAME      = TEME
TIME_SYSTEM    = UTC
MEAN_ELEMENT_THEORY = SGP/SGP4

EPOCH          = 2026-03-11T06:00:02.000160
MEAN_MOTION    = 15.82385893
ECCENTRICITY   = .00016288
INCLINATION    = 97.2684
RA_OF_ASC_NODE = 2.7125
ARG_OF_PERICENTER = 104.7096
MEAN_ANOMALY   = 83.4151

EPHEMERIS_TYPE = 0
CLASSIFICATION_TYPE = U
NORAD_CAT_ID   = 67901
ELEMENT_SET_NO = 999
REV_AT_EPOCH   = 405
BSTAR          = -.78668344E-2
MEAN_MOTION_DOT = -.1439527E-1
MEAN_MOTION_DDOT = 0

CCSDS_OMM_VERS = 2.0
CREATION_DATE  = 
ORIGINATOR     = 

OBJECT_NAME    = STARLINK-36876
OBJECT_ID      = 2026-035Z
CENTER_NAME    = EARTH
REF_FRAME      = TEME
TIME_SYSTEM    = UTC
MEAN_ELEMENT_THEORY = SGP/SGP4

EPOCH          = 2026-03-11T06:00:02.000160
MEAN_MOTION    = 15.82656314
ECCENTRICITY   = .00015651
INCLINATION    = 97.2680
RA_OF_ASC_NODE = 2.7086
ARG_OF_PERICENTER = 103.1928
MEAN_ANOMALY   = 75.8448

EPHEMERIS_TYPE = 0
CLASSIFICATION_TYPE = U
NORAD_CAT_ID   = 67902
ELEMENT_SET_NO = 999
REV_AT_EPOCH   = 400
BSTAR          = -.76602866E-2
MEAN_MOTION_DOT = -.1394521E-1
MEAN_MOTION_DDOT = 0

CCSDS_OMM_VERS = 2.0
CREATION_DATE  = 
ORIGINATOR     = 

OBJECT_NAME    = STARLINK-36257
OBJECT_ID      = 2026-035AA
CENTER_NAME    = EARTH
REF_FRAME      = TEME
TIME_SYSTEM    = UTC
MEAN_ELEMENT_THEORY = SGP/SGP4

EPOCH          = 2026-03-11T06:00:02.000160
MEAN_MOTION    = 15.82559080
ECCENTRICITY   = .00014468
INCLINATION    = 97.2679
RA_OF_ASC_NODE = 2.7104
ARG_OF_PERICENTER = 95.3176
MEAN_ANOMALY   = 88.1577

EPHEMERIS_TYPE = 0
CLASSIFICATION_TYPE = U
NORAD_CAT_ID   = 67903
ELEMENT_SET_NO = 999
REV_AT_EPOCH   = 405
BSTAR          = -.74241902E-2
MEAN_MOTION_DOT = -.1351445E-1
MEAN_MOTION_DDOT = 0

CCSDS_OMM_VERS = 2.0
CREATION_DATE  = 
ORIGINATOR     = 

OBJECT_NAME    = STARLINK-36814
OBJECT_ID      = 2026-036A
CENTER_NAME    = EARTH
REF_FRAME      = TEME
TIME_SYSTEM    = UTC
MEAN_ELEMENT_THEORY = SGP/SGP4

EPOCH          = 2026-03-11T06:00:02.000160
MEAN_MOTION    = 15.69102970
ECCENTRICITY   = .00017206
INCLINATION    = 42.9995
RA_OF_ASC_NODE = 240.4259
ARG_OF_PERICENTER = 274.8148
MEAN_ANOMALY   = 144.3517

EPHEMERIS_TYPE = 0
CLASSIFICATION_TYPE = U
NORAD_CAT_ID   = 67904
ELEMENT_SET_NO = 999
REV_AT_EPOCH   = 389
BSTAR          = -.18465525E-1
MEAN_MOTION_DOT = -.1949139E-1
MEAN_MOTION_DDOT = 0

CCSDS_OMM_VERS = 2.0
CREATION_DATE  = 
ORIGINATOR     = 

OBJECT_NAME    = STARLINK-36729
OBJECT_ID      = 2026-036B
CENTER_NAME    = EARTH
REF_FRAME      = TEME
TIME_SYSTEM    = UTC
MEAN_ELEMENT_THEORY = SGP/SGP4

EPOCH          = 2026-03-11T06:00:02.000160
MEAN_MOTION    = 15.78634825
ECCENTRICITY   = .00015516
INCLINATION    = 42.9992
RA_OF_ASC_NODE = 240.2473
ARG_OF_PERICENTER = 277.6062
MEAN_ANOMALY   = 212.7655

EPHEMERIS_TYPE = 0
CLASSIFICATION_TYPE = U
NORAD_CAT_ID   = 67905
ELEMENT_SET_NO = 999
REV_AT_EPOCH   = 389
BSTAR          = -.12308289E-1
MEAN_MOTION_DOT = -.1928869E-1
MEAN_MOTION_DDOT = 0

CCSDS_OMM_VERS = 2.0
CREATION_DATE  = 
ORIGINATOR     = 

OBJECT_NAME    = STARLINK-36763
OBJECT_ID      = 2026-036C
CENTER_NAME    = EARTH
REF_FRAME      = TEME
TIME_SYSTEM    = UTC
MEAN_ELEMENT_THEORY = SGP/SGP4

EPOCH          = 2026-03-10T21:50:20.372064
MEAN_MOTION    = 15.81509246
ECCENTRICITY   = .000306
INCLINATION    = 42.9984
RA_OF_ASC_NODE = 242.3100
ARG_OF_PERICENTER = 296.6307
MEAN_ANOMALY   = 63.4251

EPHEMERIS_TYPE = 0
CLASSIFICATION_TYPE = U
NORAD_CAT_ID   = 67906
ELEMENT_SET_NO = 999
REV_AT_EPOCH   = 386
BSTAR          = -.19336E-2
MEAN_MOTION_DOT = -.38133E-2
MEAN_MOTION_DDOT = 0

CCSDS_OMM_VERS = 2.0
CREATION_DATE  = 
ORIGINATOR     = 

OBJECT_NAME    = STARLINK-36742
OBJECT_ID      = 2026-036D
CENTER_NAME    = EARTH
REF_FRAME      = TEME
TIME_SYSTEM    = UTC
MEAN_ELEMENT_THEORY = SGP/SGP4

EPOCH          = 2026-03-10T12:43:42.053376
MEAN_MOTION    = 15.82352005
ECCENTRICITY   = .00039151
INCLINATION    = 42.9985
RA_OF_ASC_NODE = 244.6248
ARG_OF_PERICENTER = 243.6251
MEAN_ANOMALY   = 116.4219

EPHEMERIS_TYPE = 0
CLASSIFICATION_TYPE = U
NORAD_CAT_ID   = 67907
ELEMENT_SET_NO = 999
REV_AT_EPOCH   = 380
BSTAR          = .28999316E-2
MEAN_MOTION_DOT = .670159E-2
MEAN_MOTION_DDOT = 0

CCSDS_OMM_VERS = 2.0
CREATION_DATE  = 
ORIGINATOR     = 

OBJECT_NAME    = STARLINK-36827
OBJECT_ID      = 2026-036E
CENTER_NAME    = EARTH
REF_FRAME      = TEME
TIME_SYSTEM    = UTC
MEAN_ELEMENT_THEORY = SGP/SGP4

EPOCH          = 2026-03-10T20:17:09.377088
MEAN_MOTION    = 15.82126491
ECCENTRICITY   = .00022679
INCLINATION    = 42.9985
RA_OF_ASC_NODE = 242.6849
ARG_OF_PERICENTER = 279.6488
MEAN_ANOMALY   = 80.4127

EPHEMERIS_TYPE = 0
CLASSIFICATION_TYPE = U
NORAD_CAT_ID   = 67908
ELEMENT_SET_NO = 999
REV_AT_EPOCH   = 385
BSTAR          = .97499616E-3
MEAN_MOTION_DOT = .210941E-2
MEAN_MOTION_DDOT = 0

CCSDS_OMM_VERS = 2.0
CREATION_DATE  = 
ORIGINATOR     = 

OBJECT_NAME    = STARLINK-36822
OBJECT_ID      = 2026-036F
CENTER_NAME    = EARTH
REF_FRAME      = TEME
TIME_SYSTEM    = UTC
MEAN_ELEMENT_THEORY = SGP/SGP4

EPOCH          = 2026-03-11T06:00:02.000160
MEAN_MOTION    = 15.79207408
ECCENTRICITY   = .0001211
INCLINATION    = 42.9994
RA_OF_ASC_NODE = 240.2018
ARG_OF_PERICENTER = 270.6056
MEAN_ANOMALY   = 238.3924

EPHEMERIS_TYPE = 0
CLASSIFICATION_TYPE = U
NORAD_CAT_ID   = 67909
ELEMENT_SET_NO = 999
REV_AT_EPOCH   = 389
BSTAR          = -.11978105E-1
MEAN_MOTION_DOT = -.192707E-1
MEAN_MOTION_DDOT = 0

